{"type": "FeatureCollection", "features": [ {"type": "Feature", "properties": {"norad_id": 66427, "name": "STARLINK-35611", "group": "last-30-days", "lat": -42.09075481076882, "lon": -12.8129508211552, "alt_km": 428.83446209509293, "timestamp": "2025-12-05T04:52:14.141316+00:00", "meta": {"OBJECT_NAME": "STARLINK-35611", "OBJECT_ID": "2025-259F", "EPOCH": "2025-12-04T18:00:02.000160", "MEAN_MOTION": 15.48617955, "ECCENTRICITY": 0.0001353, "INCLINATION": 43.0006, "RA_OF_ASC_NODE": 94.0552, "ARG_OF_PERICENTER": 270.5947, "MEAN_ANOMALY": 342.4783, "EPHEMERIS_TYPE": 0, "CLASSIFICATION_TYPE": "U", "NORAD_CAT_ID": 66427, "ELEMENT_SET_NO": 999, "REV_AT_EPOCH": 499, "BSTAR": -0.041624, "MEAN_MOTION_DOT": -0.02030273, "MEAN_MOTION_DDOT": 0}, "tle": {"line1": "1 66427U 25259F   25338.75002315 -.02030273  00000+0 -41624-1 0  9998", "line2": "2 66427  43.0006  94.0552 0001353 270.5947 342.4783 15.48617955  4995"}}, "geometry": {"type": "Point", "coordinates": [-12.8129508211552, -42.09075481076882]}}, {"type": "Feature", "properties": {"norad_id": 66428, "name": "STARLINK-35610", "group": "last-30-days", "lat": -42.771673676456125, "lon": -5.511846715048255, "alt_km": 424.85312450115634, "timestamp": "2025-12-05T04:52:14.141325+00:00", "meta": {"OBJECT_NAME": "STARLINK-35610", "OBJECT_ID": "2025-259G", "EPOCH": "2025-12-04T18:00:02.000160", "MEAN_MOTION": 15.49923231, "ECCENTRICITY": 0.0001476, "INCLINATION": 43.0007, "RA_OF_ASC_NODE": 94.0472, "ARG_OF_PERICENTER": 276.032, "MEAN_ANOMALY": 340.3269, "EPHEMERIS_TYPE": 0, "CLASSIFICATION_TYPE": "U", "NORAD_CAT_ID": 66428, "ELEMENT_SET_NO": 999, "REV_AT_EPOCH": 499, "BSTAR": -0.039047, "MEAN_MOTION_DOT": -0.01998952, "MEAN_MOTION_DDOT": 0}, "tle": {"line1": "1 66428U 25259G   25338.75002315 -.01998952  00000+0 -39047-1 0  9991", "line2": "2 66428  43.0007  94.0472 0001476 276.0320 340.3269 15.49923231  4994"}}, "geometry": {"type": "Point", "coordinates": [-5.511846715048255, -42.771673676456125]}}, {"type": "Feature", "properties": {"norad_id": 66429, "name": "STARLINK-35533", "group": "last-30-days", "lat": -42.97148520760689, "lon": -0.02030318444084528, "alt_km": 420.75591800850907, "timestamp": "2025-12-05T04:52:14.141334+00:00", "meta": {"OBJECT_NAME": "STARLINK-35533", "OBJECT_ID": "2025-259H", "EPOCH": "2025-12-04T18:00:02.000160", "MEAN_MOTION": 15.50942306, "ECCENTRICITY": 0.00013, "INCLINATION": 43.0006, "RA_OF_ASC_NODE": 94.0409, "ARG_OF_PERICENTER": 266.9909, "MEAN_ANOMALY": 351.3849, "EPHEMERIS_TYPE": 0, "CLASSIFICATION_TYPE": "U", "NORAD_CAT_ID": 66429, "ELEMENT_SET_NO": 999, "REV_AT_EPOCH": 499, "BSTAR": -0.029248, "MEAN_MOTION_DOT": -0.01567241, "MEAN_MOTION_DDOT": 0}, "tle": {"line1": "1 66429U 25259H   25338.75002315 -.01567241  00000+0 -29248-1 0  9997", "line2": "2 66429  43.0006  94.0409 0001300 266.9909 351.3849 15.50942306  4993"}}, "geometry": {"type": "Point", "coordinates": [-0.02030318444084528, -42.97148520760689]}}, {"type": "Feature", "properties": {"norad_id": 66430, "name": "STARLINK-35470", "group": "last-30-days", "lat": -42.96037820788417, "lon": 3.519530108302374, "alt_km": 417.3541811817404, "timestamp": "2025-12-05T04:52:14.141345+00:00", "meta": {"OBJECT_NAME": "STARLINK-35470", "OBJECT_ID": "2025-259J", "EPOCH": "2025-12-04T18:00:02.000160", "MEAN_MOTION": 15.50533908, "ECCENTRICITY": 0.0001577, "INCLINATION": 43.0006, "RA_OF_ASC_NODE": 94.0378, "ARG_OF_PERICENTER": 259.9152, "MEAN_ANOMALY": 0.4249, "EPHEMERIS_TYPE": 0, "CLASSIFICATION_TYPE": "U", "NORAD_CAT_ID": 66430, "ELEMENT_SET_NO": 999, "REV_AT_EPOCH": 499, "BSTAR": 0.00080523, "MEAN_MOTION_DOT": 0.00047106, "MEAN_MOTION_DDOT": 0}, "tle": {"line1": "1 66430U 25259J   25338.75002315  .00047106  00000+0  80523-3 0  9994", "line2": "2 66430  43.0006  94.0378 0001577 259.9152   0.4249 15.50533908  4998"}}, "geometry": {"type": "Point", "coordinates": [3.519530108302374, -42.96037820788417]}}, {"type": "Feature", "properties": {"norad_id": 66431, "name": "STARLINK-35439", "group": "last-30-days", "lat": -42.88217992070973, "lon": 6.121476448718746, "alt_km": 417.3301731107931, "timestamp": "2025-12-05T04:52:14.141353+00:00", "meta": {"OBJECT_NAME": "STARLINK-35439", "OBJECT_ID": "2025-259K", "EPOCH": "2025-12-04T18:00:02.000160", "MEAN_MOTION": 15.50516902, "ECCENTRICITY": 0.0001606, "INCLINATION": 43.0005, "RA_OF_ASC_NODE": 94.0315, "ARG_OF_PERICENTER": 276.7874, "MEAN_ANOMALY": 345.4865, "EPHEMERIS_TYPE": 0, "CLASSIFICATION_TYPE": "U", "NORAD_CAT_ID": 66431, "ELEMENT_SET_NO": 999, "REV_AT_EPOCH": 499, "BSTAR": 0.0011113, "MEAN_MOTION_DOT": 0.00065253, "MEAN_MOTION_DDOT": 0}, "tle": {"line1": "1 66431U 25259K   25338.75002315  .00065253  00000+0  11113-2 0  9996", "line2": "2 66431  43.0005  94.0315 0001606 276.7874 345.4865 15.50516902  4991"}}, "geometry": {"type": "Point", "coordinates": [6.121476448718746, -42.88217992070973]}}, {"type": "Feature", "properties": {"norad_id": 66432, "name": "STARLINK-35446", "group": "last-30-days", "lat": -42.745352043132314, "lon": 8.713907758718566, "alt_km": 417.523581713619, "timestamp": "2025-12-05T04:52:14.141362+00:00", "meta": {"OBJECT_NAME": "STARLINK-35446", "OBJECT_ID": "2025-259L", "EPOCH": "2025-12-04T18:00:02.000160", "MEAN_MOTION": 15.50574443, "ECCENTRICITY": 0.0001369, "INCLINATION": 43.0007, "RA_OF_ASC_NODE": 94.0262, "ARG_OF_PERICENTER": 276.2152, "MEAN_ANOMALY": 347.9385, "EPHEMERIS_TYPE": 0, "CLASSIFICATION_TYPE": "U", "NORAD_CAT_ID": 66432, "ELEMENT_SET_NO": 999, "REV_AT_EPOCH": 499, "BSTAR": -0.00030072, "MEAN_MOTION_DOT": -0.0001794, "MEAN_MOTION_DDOT": 0}, "tle": {"line1": "1 66432U 25259L   25338.75002315 -.00017940  00000+0 -30072-3 0  9995", "line2": "2 66432  43.0007  94.0262 0001369 276.2152 347.9385 15.50574443  4993"}}, "geometry": {"type": "Point", "coordinates": [8.713907758718566, -42.745352043132314]}}, {"type": "Feature", "properties": {"norad_id": 66433, "name": "STARLINK-35457", "group": "last-30-days", "lat": -42.548731268812034, "lon": 11.307572107492955, "alt_km": 417.43905054676543, "timestamp": "2025-12-05T04:52:14.141374+00:00", "meta": {"OBJECT_NAME": "STARLINK-35457", "OBJECT_ID": "2025-259M", "EPOCH": "2025-12-04T18:00:02.000160", "MEAN_MOTION": 15.50559315, "ECCENTRICITY": 0.0001528, "INCLINATION": 43.0007, "RA_OF_ASC_NODE": 94.0224, "ARG_OF_PERICENTER": 260.7799, "MEAN_ANOMALY": 5.3055, "EPHEMERIS_TYPE": 0, "CLASSIFICATION_TYPE": "U", "NORAD_CAT_ID": 66433, "ELEMENT_SET_NO": 999, "REV_AT_EPOCH": 499, "BSTAR": -3.5976e-05, "MEAN_MOTION_DOT": -2.45e-05, "MEAN_MOTION_DDOT": 0}, "tle": {"line1": "1 66433U 25259M   25338.75002315 -.00002450  00000+0 -35976-4 0  9995", "line2": "2 66433  43.0007  94.0224 0001528 260.7799   5.3055 15.50559315  4994"}}, "geometry": {"type": "Point", "coordinates": [11.307572107492955, -42.548731268812034]}}, {"type": "Feature", "properties": {"norad_id": 66434, "name": "STARLINK-35389", "group": "last-30-days", "lat": -42.294688732463385, "lon": 13.87402992120113, "alt_km": 417.48750912636933, "timestamp": "2025-12-05T04:52:14.141385+00:00", "meta": {"OBJECT_NAME": "STARLINK-35389", "OBJECT_ID": "2025-259N", "EPOCH": "2025-12-04T18:00:02.000160", "MEAN_MOTION": 15.50572291, "ECCENTRICITY": 0.0001463, "INCLINATION": 43.0006, "RA_OF_ASC_NODE": 94.0186, "ARG_OF_PERICENTER": 264.0478, "MEAN_ANOMALY": 3.9513, "EPHEMERIS_TYPE": 0, "CLASSIFICATION_TYPE": "U", "NORAD_CAT_ID": 66434, "ELEMENT_SET_NO": 999, "REV_AT_EPOCH": 499, "BSTAR": -0.0004301, "MEAN_MOTION_DOT": -0.00025485, "MEAN_MOTION_DDOT": 0}, "tle": {"line1": "1 66434U 25259N   25338.75002315 -.00025485  00000+0 -43010-3 0  9996", "line2": "2 66434  43.0006  94.0186 0001463 264.0478   3.9513 15.50572291  4991"}}, "geometry": {"type": "Point", "coordinates": [13.87402992120113, -42.294688732463385]}}, {"type": "Feature", "properties": {"norad_id": 66435, "name": "STARLINK-35502", "group": "last-30-days", "lat": -41.98485350115349, "lon": 16.40972014906421, "alt_km": 417.38165632074833, "timestamp": "2025-12-05T04:52:14.141394+00:00", "meta": {"OBJECT_NAME": "STARLINK-35502", "OBJECT_ID": "2025-259P", "EPOCH": "2025-12-04T18:00:02.000160", "MEAN_MOTION": 15.50544043, "ECCENTRICITY": 0.0001528, "INCLINATION": 43.0007, "RA_OF_ASC_NODE": 94.0137, "ARG_OF_PERICENTER": 271.8296, "MEAN_ANOMALY": 358.0958, "EPHEMERIS_TYPE": 0, "CLASSIFICATION_TYPE": "U", "NORAD_CAT_ID": 66435, "ELEMENT_SET_NO": 999, "REV_AT_EPOCH": 499, "BSTAR": 0.00034496, "MEAN_MOTION_DOT": 0.00019922, "MEAN_MOTION_DDOT": 0}, "tle": {"line1": "1 66435U 25259P   25338.75002315  .00019922  00000+0  34496-3 0  9992", "line2": "2 66435  43.0007  94.0137 0001528 271.8296 358.0958 15.50544043  4996"}}, "geometry": {"type": "Point", "coordinates": [16.40972014906421, -41.98485350115349]}}, {"type": "Feature", "properties": {"norad_id": 66436, "name": "STARLINK-35501", "group": "last-30-days", "lat": -41.19854707343617, "lon": 21.404604633395238, "alt_km": 417.3542148952856, "timestamp": "2025-12-05T04:52:14.141403+00:00", "meta": {"OBJECT_NAME": "STARLINK-35501", "OBJECT_ID": "2025-259Q", "EPOCH": "2025-12-04T18:00:02.000160", "MEAN_MOTION": 15.50527023, "ECCENTRICITY": 0.0001584, "INCLINATION": 43.0007, "RA_OF_ASC_NODE": 94.0034, "ARG_OF_PERICENTER": 271.3581, "MEAN_ANOMALY": 2.4187, "EPHEMERIS_TYPE": 0, "CLASSIFICATION_TYPE": "U", "NORAD_CAT_ID": 66436, "ELEMENT_SET_NO": 999, "REV_AT_EPOCH": 499, "BSTAR": 0.0004693, "MEAN_MOTION_DOT": 0.00027235, "MEAN_MOTION_DDOT": 0}, "tle": {"line1": "1 66436U 25259Q   25338.75002315  .00027235  00000+0  46930-3 0  9995", "line2": "2 66436  43.0007  94.0034 0001584 271.3581   2.4187 15.50527023  4990"}}, "geometry": {"type": "Point", "coordinates": [21.404604633395238, -41.19854707343617]}}]}